IONOSFERA-M 2           
1 61736U 24199B   26199.24168768  .00000004  00000+0  21200-4 0  9999
2 61736  98.7129  71.9905 0000611 129.0654 231.0579 14.22762860135247
PRSC-EO1                
1 62725U 25012A   26199.31191921  .00003181  00000+0  16131-3 0  9993
2 62725  97.4210 271.1611 0006985 137.7392 222.4381 15.17642805 82917
BIOMASS                 
1 63772U 25090A   26199.26368944  .00000230  00000+0  49113-4 0  9996
2 63772  98.0750  26.1262 0001424  93.3429 266.7939 14.67534286 65241
GOSAT-GW (IBUKI GW)     
1 64694U 25141A   26199.28089481 -.00000164  00000+0 -20568-4 0  9996
2 64694  98.0564 136.0928 0001364  85.2702 274.8658 14.67554121 56401
IONOSFERA-M 3           
1 64876U 25155A   26199.28720109  .00000004  00000+0  21315-4 0  9994
2 64876  98.6042 160.4124 0002373 107.9009 252.2428 14.21491108 50822
IONOSFERA-M 4           
1 64877U 25155B   26199.32198902  .00000008  00000+0  23323-4 0  9995
2 64877  98.6041 160.3635 0001868  96.6533 263.4858 14.21493557 50823
MICROCARB               
1 64899U 25156A   26199.13199782  .00000248  00000+0  46417-4 0  9991
2 64899  98.0074 275.7928 0017851 161.5414 198.6445 14.72886955 52526
CO3D 3                  
1 64900U 25156B   26199.25599350  .00002045  00000+0  97556-4 0  9999
2 64900  97.4332 277.5027 0001770  93.6184 266.5253 15.20205485 54252
CO3D 4                  
1 64901U 25156C   26199.25614599  .00000630  00000+0  32239-4 0  9998
2 64901  97.4336 277.5027 0001860 149.4493 210.6851 15.20203661 54258
CO3D 2                  
1 64902U 25156D   26199.22279537  .00002166  00000+0  10314-3 0  9990
2 64902  97.4333 277.3686 0001205  92.2066 267.9307 15.20206948 54240
CO3D 1                  
1 64903U 25156E   26199.22294480  .00002159  00000+0  10286-3 0  9995
2 64903  97.4332 277.3688 0001314 101.2220 258.9163 15.20192437 54243
PRSC-S1                 
1 65055U 25164A   26199.15621347  .00002438  00000+0  17326-3 0  9993
2 65055  41.1302 113.3644 0007153 216.2275 143.8055 15.06650000 53105
SENTINEL-6B             
1 66514U 25264A   26199.08197681 -.00000047  00000+0  59851-4 0  9991
2 66514  66.0411  71.0106 0007832 268.5310  91.4808 12.80930219 31124
CAS500-3                
1 66655U 25274F   26199.20807107  .00000575  00000+0  67897-4 0  9997
2 66655  97.7435 126.5537 0006030  29.7662 330.3897 14.88387681 34762
CSG-3                   
1 67304U 26001A   26199.05137176  .00000104  00000+0  19646-4 0  9990
2 67304  97.8897  22.2074 0001529  93.2524 266.8864 14.82153018 29036
PRSC-E03                
1 68835U 26092A   26199.26972686  .00001070  00000+0  77708-4 0  9992
2 68835  38.0009 266.3729 0005044 270.0452  89.9731 15.06816698 12640
CAS500-2                
1 69013U 26100AK  26199.14456174  .00002938  00000+0  14051-3 0  9992
2 69013  97.3852  96.4070 0007963 241.0566 118.9871 15.19743851 11517
