OBJECT_NAME,OBJECT_ID,EPOCH,MEAN_MOTION,ECCENTRICITY,INCLINATION,RA_OF_ASC_NODE,ARG_OF_PERICENTER,MEAN_ANOMALY,EPHEMERIS_TYPE,CLASSIFICATION_TYPE,NORAD_CAT_ID,ELEMENT_SET_NO,REV_AT_EPOCH,BSTAR,MEAN_MOTION_DOT,MEAN_MOTION_DDOT
IONOSFERA-M 2,2024-199B,2026-07-18T05:48:01.815552,14.22762860,.00006113,98.7129,71.9905,129.0654,231.0579,0,U,61736,999,13524,.21199952E-4,.4E-7,0
PRSC-EO1,2025-012A,2026-07-18T07:29:09.819744,15.17642805,.0006985,97.4210,271.1611,137.7392,222.4381,0,U,62725,999,8291,.16130529E-3,.3181E-4,0
BIOMASS,2025-090A,2026-07-18T06:19:42.767616,14.67534286,.00014242,98.0750,26.1262,93.3429,266.7939,0,U,63772,999,6524,.4911293E-4,.23E-5,0
GOSAT-GW (IBUKI GW),2025-141A,2026-07-18T06:44:29.311584,14.67554121,.00013643,98.0564,136.0928,85.2702,274.8658,0,U,64694,999,5640,-.20568154E-4,-.164E-5,0
IONOSFERA-M 3,2025-155A,2026-07-18T06:53:34.174176,14.21491108,.00023734,98.6042,160.4124,107.9009,252.2428,0,U,64876,999,5082,.21314965E-4,.4E-7,0
IONOSFERA-M 4,2025-155B,2026-07-18T07:43:39.851328,14.21493557,.00018681,98.6041,160.3635,96.6533,263.4858,0,U,64877,999,5082,.23322537E-4,.8E-7,0
MICROCARB,2025-156A,2026-07-18T03:10:04.611648,14.72886955,.00178518,98.0074,275.7928,161.5414,198.6445,0,U,64899,999,5252,.46416822E-4,.248E-5,0
CO3D 3,2025-156B,2026-07-18T06:08:37.838400,15.20205485,.00017704,97.4332,277.5027,93.6184,266.5253,0,U,64900,999,5425,.97555764E-4,.2045E-4,0
CO3D 4,2025-156C,2026-07-18T06:08:51.013536,15.20203661,.00018605,97.4336,277.5027,149.4493,210.6851,0,U,64901,999,5425,.3223909E-4,.63E-5,0
CO3D 2,2025-156D,2026-07-18T05:20:49.519968,15.20206948,.00012055,97.4333,277.3686,92.2066,267.9307,0,U,64902,999,5424,.10314312E-3,.2166E-4,0
CO3D 1,2025-156E,2026-07-18T05:21:02.430720,15.20192437,.00013142,97.4332,277.3688,101.2220,258.9163,0,U,64903,999,5424,.10285974E-3,.2159E-4,0
PRSC-S1,2025-164A,2026-07-18T03:44:56.843808,15.06650000,.00071539,41.1302,113.3644,216.2275,143.8055,0,U,65055,999,5310,.17326218E-3,.2438E-4,0
SENTINEL-6B,2025-264A,2026-07-18T01:58:02.796384,12.80930219,.0007832,66.0411,71.0106,268.5310,91.4808,0,U,66514,999,3112,.59850662E-4,-.47E-6,0
CAS500-3,2025-274F,2026-07-18T04:59:37.340448,14.88387681,.00060309,97.7435,126.5537,29.7662,330.3897,0,U,66655,999,3476,.678968E-4,.575E-5,0
CSG-3,2026-001A,2026-07-18T01:13:58.520064,14.82153018,.00015297,97.8897,22.2074,93.2524,266.8864,0,U,67304,999,2903,.19646123E-4,.104E-5,0
PRSC-E03,2026-092A,2026-07-18T06:28:24.400704,15.06816698,.00050447,38.0009,266.3729,270.0452,89.9731,0,U,68835,999,1264,.77707728E-4,.107E-4,0
CAS500-2,2026-100AK,2026-07-18T03:28:10.134336,15.19743851,.00079639,97.3852,96.4070,241.0566,118.9871,0,U,69013,999,1151,.14050516E-3,.2938E-4,0
